CCSDS_OMM_VERS,COMMENT,CREATION_DATE,ORIGINATOR,OBJECT_NAME,OBJECT_ID,CENTER_NAME,REF_FRAME,TIME_SYSTEM,MEAN_ELEMENT_THEORY,EPOCH,MEAN_MOTION,ECCENTRICITY,INCLINATION,RA_OF_ASC_NODE,ARG_OF_PERICENTER,MEAN_ANOMALY,EPHEMERIS_TYPE,CLASSIFICATION_TYPE,NORAD_CAT_ID,ELEMENT_SET_NO,REV_AT_EPOCH,BSTAR,MEAN_MOTION_DOT,MEAN_MOTION_DDOT,SEMIMAJOR_AXIS,PERIOD,APOAPSIS,PERIAPSIS,OBJECT_TYPE,RCS_SIZE,COUNTRY_CODE,LAUNCH_DATE,SITE,DECAY_DATE,FILE,GP_ID,TLE_LINE0,TLE_LINE1,TLE_LINE2
2,GENERATED VIA SPACE-TRACK.ORG API,2022-07-14T02:43:01,18 SPCS,BREEZE-M R/B,2000-029B,EARTH,TEME,UTC,SGP4,2022-07-13T17:31:33.066048,1.00320516,0.0259139,12.8237,16.7471,302.3815,50.9948,0,U,26373,999,8103,0.0,-6e-07,0,42151.076,1435.399,36865.24,34680.643,ROCKET BODY,LARGE,CIS,2000-06-06,TTMTR,,3513188,208051946,0 BREEZE-M R/B,1 26373U 00029B   22194.73024382 -.00000060  00000-0  00000-0 0  9996,2 26373  12.8237  16.7471 0259139 302.3815  50.9948  1.00320516 81038
2,GENERATED VIA SPACE-TRACK.ORG API,2022-07-14T17:30:14,18 SPCS,BREEZE-M R/B,2000-029B,EARTH,TEME,UTC,SGP4,2022-07-14T07:02:27.466944,1.00320645,0.025913,12.824,16.7429,302.3939,254.3661,0,U,26373,999,8104,0.0,-6.3e-07,0,42151.04,1435.397,36865.165,34680.645,ROCKET BODY,LARGE,CIS,2000-06-06,TTMTR,,3513725,208089276,0 BREEZE-M R/B,1 26373U 00029B   22195.29337346 -.00000063  00000-0  00000-0 0  9998,2 26373  12.8240  16.7429 0259130 302.3939 254.3661  1.00320645 81049
2,GENERATED VIA SPACE-TRACK.ORG API,2022-07-15T04:33:57,18 SPCS,BREEZE-M R/B,2000-029B,EARTH,TEME,UTC,SGP4,2022-07-14T17:38:08.378880,1.00320743,0.0259127,12.8242,16.7396,302.4065,53.789,0,U,26373,999,8104,0.0,-6.5e-07,0,42151.013,1435.396,36865.124,34680.631,ROCKET BODY,LARGE,CIS,2000-06-06,TTMTR,,3513976,208119502,0 BREEZE-M R/B,1 26373U 00029B   22195.73481920 -.00000065  00000-0  00000-0 0  9997,2 26373  12.8242  16.7396 0259127 302.4065  53.7890  1.00320743 81045
2,GENERATED VIA SPACE-TRACK.ORG API,2022-07-15T17:27:10,18 SPCS,BREEZE-M R/B,2000-029B,EARTH,TEME,UTC,SGP4,2022-07-15T07:05:02.388192,1.00320862,0.0259118,12.8245,16.7355,302.4209,256.1535,0,U,26373,999,8105,0.0,-6.8e-07,0,42150.98,1435.394,36865.052,34680.637,ROCKET BODY,LARGE,CIS,2000-06-06,TTMTR,,3514546,208156245,0 BREEZE-M R/B,1 26373U 00029B   22196.29516653 -.00000068  00000-0  00000-0 0  9994,2 26373  12.8245  16.7355 0259118 302.4209 256.1535  1.00320862 81051
2,GENERATED VIA SPACE-TRACK.ORG API,2022-07-16T14:26:12,18 SPCS,BREEZE-M R/B,2000-029B,EARTH,TEME,UTC,SGP4,2022-07-16T07:02:14.041248,1.00321076,0.0259109,12.825,16.7282,302.45,256.588,0,U,26373,999,8105,0.0,-7.2e-07,0,42150.92,1435.391,36864.953,34680.616,ROCKET BODY,LARGE,CIS,2000-06-06,TTMTR,,3515146,208213400,0 BREEZE-M R/B,1 26373U 00029B   22197.29321807 -.00000072  00000-0  00000+0 0  9994,2 26373  12.8250  16.7282 0259109 302.4500 256.5880  1.00321076 81055
2,GENERATED VIA SPACE-TRACK.ORG API,2022-07-16T17:42:47,18 SPCS,BREEZE-M R/B,2000-029B,EARTH,TEME,UTC,SGP4,2022-07-16T07:02:14.041248,1.00321076,0.0259109,12.825,16.7282,302.45,256.588,0,U,26373,999,8106,0.0,-7.2e-07,0,42150.92,1435.391,36864.953,34680.616,ROCKET BODY,LARGE,CIS,2000-06-06,TTMTR,,3515362,208226171,0 BREEZE-M R/B,1 26373U 00029B   22197.29321807 -.00000072  00000-0  00000-0 0  9995,2 26373  12.8250  16.7282 0259109 302.4500 256.5880  1.00321076 81066
2,GENERATED VIA SPACE-TRACK.ORG API,2022-07-17T03:21:53,18 SPCS,BREEZE-M R/B,2000-029B,EARTH,TEME,UTC,SGP4,2022-07-16T17:51:12.913344,1.00321179,0.0259106,12.8252,16.7249,302.4633,59.3466,0,U,26373,999,8107,0.0,-7.3e-07,0,42150.891,1435.39,36864.911,34680.601,ROCKET BODY,LARGE,CIS,2000-06-06,TTMTR,,3515618,208255454,0 BREEZE-M R/B,1 26373U 00029B   22197.74389946 -.00000073  00000-0  00000-0 0  9994,2 26373  12.8252  16.7249 0259106 302.4633  59.3466  1.00321179 81079
2,GENERATED VIA SPACE-TRACK.ORG API,2022-07-17T17:32:59,18 SPCS,BREEZE-M R/B,2000-029B,EARTH,TEME,UTC,SGP4,2022-07-17T05:52:37.035840,1.00321291,0.0259093,12.8254,16.7212,302.4749,240.271,0,U,26373,999,8107,0.0,-7.4e-07,0,42150.859,1435.388,36864.824,34680.625,ROCKET BODY,LARGE,CIS,2000-06-06,TTMTR,,3516162,208293501,0 BREEZE-M R/B,1 26373U 00029B   22198.24487310 -.00000074  00000-0  00000-0 0  9995,2 26373  12.8254  16.7212 0259093 302.4749 240.2710  1.00321291 81072
2,GENERATED VIA SPACE-TRACK.ORG API,2022-07-18T03:22:34,18 SPCS,BREEZE-M R/B,2000-029B,EARTH,TEME,UTC,SGP4,2022-07-17T17:57:50.274720,1.003214,0.0259086,12.8257,16.7175,302.4891,62.1505,0,U,26373,999,8108,0.0,-7.5e-07,0,42150.829,1435.387,36864.763,34680.625,ROCKET BODY,LARGE,CIS,2000-06-06,TTMTR,,3516387,208323396,0 BREEZE-M R/B,1 26373U 00029B   22198.74849855 -.00000075  00000-0  00000-0 0  9997,2 26373  12.8257  16.7175 0259086 302.4891  62.1505  1.00321400 81089
2,GENERATED VIA SPACE-TRACK.ORG API,2022-07-18T14:36:12,18 SPCS,BREEZE-M R/B,2000-029B,EARTH,TEME,UTC,SGP4,2022-07-18T08:18:32.206176,1.00321534,0.0259074,12.826,16.7132,302.505,278.0081,0,U,26373,999,8107,0.0,-7.6e-07,0,42150.791,1435.385,36864.674,34680.639,ROCKET BODY,LARGE,CIS,2000-06-06,TTMTR,,3516710,208349203,0 BREEZE-M R/B,1 26373U 00029B   22199.34620609 -.00000076  00000-0  00000+0 0  9998,2 26373  12.8260  16.7132 0259074 302.5050 278.0081  1.00321534 81075
2,GENERATED VIA SPACE-TRACK.ORG API,2022-07-18T17:15:08,18 SPCS,BREEZE-M R/B,2000-029B,EARTH,TEME,UTC,SGP4,2022-07-18T08:18:32.206176,1.00321534,0.0259074,12.826,16.7132,302.505,278.0081,0,U,26373,999,8108,0.0,-7.6e-07,0,42150.791,1435.385,36864.674,34680.639,ROCKET BODY,LARGE,CIS,2000-06-06,TTMTR,,3516915,208361179,0 BREEZE-M R/B,1 26373U 00029B   22199.34620609 -.00000076  00000-0  00000-0 0  9999,2 26373  12.8260  16.7132 0259074 302.5050 278.0081  1.00321534 81086
2,GENERATED VIA SPACE-TRACK.ORG API,2022-07-19T02:24:06,18 SPCS,BREEZE-M R/B,2000-029B,EARTH,TEME,UTC,SGP4,2022-07-18T18:04:22.732032,1.00321625,0.0259066,12.8262,16.7102,302.5155,64.9339,0,U,26373,999,8109,0.0,-7.6e-07,0,42150.766,1435.383,36864.614,34680.648,ROCKET BODY,LARGE,CIS,2000-06-06,TTMTR,,3517175,208391616,0 BREEZE-M R/B,1 26373U 00029B   22199.75304088 -.00000076  00000-0  00000-0 0  9994,2 26373  12.8262  16.7102 0259066 302.5155  64.9339  1.00321625 81092
2,GENERATED VIA SPACE-TRACK.ORG API,2022-07-19T19:09:43,18 SPCS,BREEZE-M R/B,2000-029B,EARTH,TEME,UTC,SGP4,2022-07-19T07:07:20.438976,1.00321751,0.025905,12.8264,16.7063,302.5284,261.2978,0,U,26373,999,8109,0.0,-7.6e-07,0,42150.73,1435.382,36864.51,34680.681,ROCKET BODY,LARGE,CIS,2000-06-06,TTMTR,,3517724,208429712,0 BREEZE-M R/B,1 26373U 00029B   22200.29676434 -.00000076  00000-0  00000-0 0  9993,2 26373  12.8264  16.7063 0259050 302.5284 261.2978  1.00321751 81097
2,GENERATED VIA SPACE-TRACK.ORG API,2022-07-20T03:15:02,18 SPCS,BREEZE-M R/B,2000-029B,EARTH,TEME,UTC,SGP4,2022-07-19T18:10:56.336736,1.00321853,0.0259037,12.8267,16.703,302.538,67.7269,0,U,26373,999,8110,0.0,-7.6e-07,0,42150.702,1435.38,36864.426,34680.708,ROCKET BODY,LARGE,CIS,2000-06-06,TTMTR,,3517796,208457248,0 BREEZE-M R/B,1 26373U 00029B   22200.75759649 -.00000076  00000-0  00000-0 0  9994,2 26373  12.8267  16.7030 0259037 302.5380  67.7269  1.00321853 81103
2,GENERATED VIA SPACE-TRACK.ORG API,2022-07-20T18:36:37,18 SPCS,BREEZE-M R/B,2000-029B,EARTH,TEME,UTC,SGP4,2022-07-20T14:46:36.741792,1.00322045,0.0259014,12.8271,16.6969,302.5579,17.6298,0,U,26373,999,8110,0.0,-7.5e-07,0,42150.648,1435.377,36864.274,34680.752,ROCKET BODY,LARGE,CIS,2000-06-06,TTMTR,,3518111,208489272,0 BREEZE-M R/B,1 26373U 00029B   22201.61570303 -.00000075  00000-0  00000-0 0  9997,2 26373  12.8271  16.6969 0259014 302.5579  17.6298  1.00322045 81103
2,GENERATED VIA SPACE-TRACK.ORG API,2022-07-20T22:36:12,18 SPCS,BREEZE-M R/B,2000-029B,EARTH,TEME,UTC,SGP4,2022-07-20T18:17:30.008832,1.0032208,0.0259012,12.8271,16.6958,302.562,70.5192,0,U,26373,999,8110,0.0,-7.5e-07,0,42150.638,1435.377,36864.255,34680.751,ROCKET BODY,LARGE,CIS,2000-06-06,TTMTR,,3518148,208507659,0 BREEZE-M R/B,1 26373U 00029B   22201.76215288 -.00000075  00000-0  00000+0 0  9990,2 26373  12.8271  16.6958 0259012 302.5620  70.5192  1.00322080 81106
2,GENERATED VIA SPACE-TRACK.ORG API,2022-07-21T02:44:17,18 SPCS,BREEZE-M R/B,2000-029B,EARTH,TEME,UTC,SGP4,2022-07-20T18:17:30.008832,1.0032208,0.0259012,12.8271,16.6958,302.562,70.5192,0,U,26373,999,8111,0.0,-7.5e-07,0,42150.638,1435.377,36864.255,34680.751,ROCKET BODY,LARGE,CIS,2000-06-06,TTMTR,,3518363,208519516,0 BREEZE-M R/B,1 26373U 00029B   22201.76215288 -.00000075  00000-0  00000-0 0  9991,2 26373  12.8271  16.6958 0259012 302.5620  70.5192  1.00322080 81117
2,GENERATED VIA SPACE-TRACK.ORG API,2022-07-21T19:06:56,18 SPCS,BREEZE-M R/B,2000-029B,EARTH,TEME,UTC,SGP4,2022-07-21T07:14:09.695904,1.00322205,0.0258997,12.8274,16.692,302.5761,265.3023,0,U,26373,999,8111,0.0,-7.4e-07,0,42150.603,1435.375,36864.156,34680.78,ROCKET BODY,LARGE,CIS,2000-06-06,TTMTR,,3518988,208559149,0 BREEZE-M R/B,1 26373U 00029B   22202.30150111 -.00000074  00000-0  00000-0 0  9994,2 26373  12.8274  16.6920 0258997 302.5761 265.3023  1.00322205 81112
2,GENERATED VIA SPACE-TRACK.ORG API,2022-07-22T18:04:29,18 SPCS,BREEZE-M R/B,2000-029B,EARTH,TEME,UTC,SGP4,2022-07-22T05:46:38.063712,1.00322428,0.0258974,12.8279,16.6853,302.5996,244.4979,0,U,26373,999,8112,0.0,-7.2e-07,0,42150.541,1435.372,36863.995,34680.816,ROCKET BODY,LARGE,CIS,2000-06-06,TTMTR,,3519758,208626206,0 BREEZE-M R/B,1 26373U 00029B   22203.24071833 -.00000072  00000-0  00000-0 0  9999,2 26373  12.8279  16.6853 0258974 302.5996 244.4979  1.00322428 81123
2,GENERATED VIA SPACE-TRACK.ORG API,2022-07-23T02:33:25,18 SPCS,BREEZE-M R/B,2000-029B,EARTH,TEME,UTC,SGP4,2022-07-22T07:16:07.106592,1.00322443,0.0258974,12.8279,16.6849,302.6022,266.9392,0,U,26373,999,8112,0.0,-7.2e-07,0,42150.537,1435.372,36863.991,34680.812,ROCKET BODY,LARGE,CIS,2000-06-06,TTMTR,,3519932,208655110,0 BREEZE-M R/B,1 26373U 00029B   22203.30286003 -.00000072  00000-0  00000-0 0  9993,2 26373  12.8279  16.6849 0258974 302.6022 266.9392  1.00322443 81124
